[{"OBJECT_NAME":"YAOGAN-30 03C","OBJECT_ID":"2017-075C","EPOCH":"2026-03-09T16:55:34.578048","MEAN_MOTION":15.02171938,"ECCENTRICITY":0.00026669,"INCLINATION":34.9942,"RA_OF_ASC_NODE":156.283,"ARG_OF_PERICENTER":259.4663,"MEAN_ANOMALY":100.5744,"EPHEMERIS_TYPE":0,"CLASSIFICATION_TYPE":"U","NORAD_CAT_ID":43030,"ELEMENT_SET_NO":999,"REV_AT_EPOCH":45245,"BSTAR":0.00030362499,"MEAN_MOTION_DOT":4.051e-5,"MEAN_MOTION_DDOT":0},{"OBJECT_NAME":"STARLINK-4328","OBJECT_ID":"2022-077AE","EPOCH":"2026-03-09T22:12:51.901344","MEAN_MOTION":15.05650874,"ECCENTRICITY":0.00013606,"INCLINATION":97.6026,"RA_OF_ASC_NODE":251.5349,"ARG_OF_PERICENTER":83.1833,"MEAN_ANOMALY":276.9549,"EPHEMERIS_TYPE":0,"CLASSIFICATION_TYPE":"U","NORAD_CAT_ID":53071,"ELEMENT_SET_NO":999,"REV_AT_EPOCH":20102,"BSTAR":3.1406158e-5,"MEAN_MOTION_DOT":3.92e-6,"MEAN_MOTION_DDOT":0}]
